      2.10          N: GNSS NAV DATA                        RINEX VERSION / TYPE
fic2rin                                 08/08/2023 00:17:52 PGM / RUN BY / DATE
                                                            END OF HEADER
6  23  8  7  1 59 44.0  .569570809603D-03 -.477484718431D-11  .000000000000D+00
     .600000000000D+01 -.234687500000D+02  .351978947050D-08  .257754837461D+01
    -.113062560558D-05  .269024900626D-02  .102873891592D-04  .515371954536D+04
     .935840000000D+05 -.409781932831D-07  .100999559320D+01 -.260770320892D-07
     .989334308168D+00  .197250000000D+03 -.774220382324D+00 -.755674334012D-08
    -.285726187357D-11  .100000000000D+01  .227400000000D+04  .000000000000D+00
     .240000000000D+01  .000000000000D+00  .372529029846D-08  .600000000000D+01
     .864000000000D+05  .400000000000D+01
21 23  8  8  0  0  0.0  .151081010699D-03 -.568434188608D-12  .000000000000D+00
     .101000000000D+03 -.394687500000D+02  .408874174108D-08 -.275679709800D+01
    -.178068876266D-05  .247134381207D-01  .799261033535D-05  .515359306908D+04
     .172800000000D+06 -.633299350739D-07  .912069529094D+00  .342726707458D-06
     .961839959535D+00  .220406250000D+03 -.724614566740D+00 -.764496130047D-08
    -.714315468392D-11  .100000000000D+01  .227400000000D+04  .000000000000D+00
     .485000000000D+01  .000000000000D+00 -.102445483208D-07  .101000000000D+03
     .165600000000D+06  .400000000000D+01
15 23  8  7 23 59 44.0  .655152834952D-04  .363797880709D-11  .000000000000D+00
     .000000000000D+00 -.308750000000D+02  .545344144344D-08  .254676802670D+01
    -.175833702087D-05  .152299440233D-01  .633113086224D-05  .515375823593D+04
     .172784000000D+06  .968575477600D-07  .295104670625D+01 -.199303030968D-06
     .933299189989D+00  .243062500000D+03  .122431954767D+01 -.820427031222D-08
     .117504894551D-09  .100000000000D+01  .227400000000D+04  .000000000000D+00
     .240000000000D+01  .000000000000D+00 -.107102096081D-07  .000000000000D+00
     .166950000000D+06  .400000000000D+01
21 23  8  7 23 59 44.0  .151079148054D-03 -.568434188608D-12  .000000000000D+00
     .130000000000D+02 -.394687500000D+02  .408838458334D-08 -.275913096289D+01
    -.177882611752D-05  .247134375386D-01  .799261033535D-05  .515359306908D+04
     .172784000000D+06 -.633299350739D-07  .912069643202D+00  .342726707458D-06
     .961839949295D+00  .220406250000D+03 -.724614505297D+00 -.764496130047D-08
    -.714315468392D-11  .100000000000D+01  .227400000000D+04  .000000000000D+00
     .240000000000D+01  .000000000000D+00 -.102445483208D-07  .130000000000D+02
     .168960000000D+06  .400000000000D+01
24 23  8  7 23 59 28.0 -.282872933894D-03 -.117097442853D-10  .000000000000D+00
     .000000000000D+00 -.831250000000D+01  .531022119203D-08  .167742399880D+01
    -.461935997009D-06  .141843830934D-01  .103227794170D-04  .515364429283D+04
     .172768000000D+06 -.402331352234D-06 -.223226397905D+01 -.856816768646D-07
     .933895569025D+00  .169781250000D+03  .907971861907D+00 -.839034949173D-08
    -.287869133762D-09  .100000000000D+01  .227400000000D+04  .000000000000D+00
     .240000000000D+01  .000000000000D+00  .279396772385D-08  .000000000000D+00
     .172050000000D+06  .400000000000D+01
